#dP2022 12 30  0  0  0.00000000      96 __u+U IGS14 FIT  IAC
## 2242 432000.00000000   900.00000000 59943 0.0000000000000
+  117   C06C08C09C10C11C12C13C14C16C19C20C21C22C23C24C25C26
+        C27C28C29C30C32C33C34C36C37C38C39C40C41C42C43C44C45
+        C46E01E02E03E04E05E07E08E09E10E11E12E13E14E15E18E19
+        E21E24E25E26E27E30E31E33E34E36G01G02G03G04G05G06G07
+        G08G09G10G11G12G13G14G15G16G17G18G19G20G21G22G23G24
+        G25G26G27G29G30G31G32J02J03J04R01R02R03R04R05R07R08
+        R09R11R12R13R14R15R16R17R18R19R20R21R22R24R25  0  0
++         7  7  7  7  7  7  7  8  7  7  7  7  7  6  6  6  6
++         6  6  6  7  6  6  7  7  6  6  7  6  6  7  6  7  7
++         6  4  4  4  5  4  4  4  4  4  5  4  4  5  4  5  5
++         5  4  4  4  5  4  4  4  4  4  3  4  4  4  4  4  3
++         4  4  3  4  3  3  3  3  4  3  3  3  4  3  4  3  3
++         3  4  4  3  3  4  4  9  9 10  7  7  6  7  7  7  7
++         7  7  7  7  7  7  7  7  7  8  8  7  7  7  8  0  0
%c M  cc GPS ccc cccc cccc cccc cccc ccccc ccccc ccccc ccccc
%c cc cc ccc ccc cccc cccc cccc cccc ccccc ccccc ccccc ccccc
%f  1.2500000  1.025000000  0.00000000000  0.000000000000000
%f  0.0000000  0.000000000  0.00000000000  0.000000000000000
%i    0    0    0    0      0      0      0      0         0
%i    0    0    0    0      0      0      0      0         0
/* INFORMATION & ANALYSIS CENTER (IAC)            FINAL DATA
/* S/V CLOCKS ARE ALIGNED TO GNSS TIME                      
/* G:C1WC2W R:C1PC2P E:C1XC5X C:C2IC6I J:C1CC2S             
/* PCV:IGS20_2239 OL/AL:FES2004  NONE     YN ORB:CoN CLK:CoN
*  2022 12 30  1  0  0.00000000
PC06   -590.363324  34768.962291  24017.779233    210.469938
PC08 -15610.539653  38130.741383   8533.969656    525.863515
PC09   4523.564450  38239.899589  18153.505385     50.377358
PC10  -5641.460690  27206.841981 -31478.955099     42.209630
PC11 -19474.975456  -5060.995990 -19270.754729   -207.358059
PC12 -18955.858818 -19909.525482  -4781.618716    370.930182
PC13 -10284.188808  38350.979914  13908.030798    170.620227
PC14 -27727.415177   3090.371982  -1361.706921    315.149170
PC16  -3207.263214  32600.527059  26892.755772     92.302658
PC19  25155.760997  -9098.593291  -7904.123799   -899.976887
PC20  26340.372405   2328.741540   8894.657862    787.461884
PC21 -11704.819572 -13232.441462 -21592.106910   -921.197251
PC22   9365.048023 -15828.450503 -20985.673875   -713.187742
PC23  -9885.592263  26076.836550   -850.120785   -870.809498
PC24 -15141.954775  -6060.012243  22625.496306   -608.780073
PC25 -17416.242446  15891.002079  14899.411318     47.312711
PC26  -5079.591052 -21438.650708  17131.653535    -56.970399
PC27  14735.157635  23427.948444  -3645.034799     73.784443
PC28    526.269838  21286.527601 -18028.929424     52.982485
PC29  15103.564538  -6416.162416  22569.843971     60.468325
PC30  21631.615858  12281.520365  12669.076096      1.258636
PC32  11690.828673  13205.919284  21637.782014   -666.293236
PC33 -25153.732228   9222.919969   7827.836437   -886.810696
PC34 -21605.575410 -11205.170513 -13638.643605     72.191663
PC36  17898.421354 -14907.469385 -15361.108338   -731.503525
PC37   3596.120668  22373.890058 -16260.471326   -864.148123
PC38 -18809.784947  37622.468880   1078.766056     48.423607
PC39  -5533.565660  29395.876820  29817.263530     -1.226135
PC40 -18487.431317  20472.678359 -31963.763240    -11.317954
PC41  -9950.524775  15853.323006  20746.726554   -435.548212
PC42 -25889.167815  -3077.462177  -9930.436798   -927.625687
PC43 -15697.130903   5705.294137 -22357.266192     32.681444
PC44 -15435.348136 -22913.068552   3801.798587    160.915440
PC45   9670.532712 -26165.194441   1219.546646    -41.011639
PC46  15827.606743   3934.445038 -22654.022175    -22.929256
PE01   8998.117273 -21912.234239  17756.648376   -586.635737
PE02  -8642.546062  21848.367651 -17993.726820     11.587191
PE03   3036.616350  18649.312110  22775.823190   -634.781894
PE04 -21626.843761 -17184.035295 -10629.429815    -24.939532
PE05 -17780.361348   9177.886294  21808.643128   -110.215201
PE07  27926.097768   5541.365367  -8095.828986    -11.123429
PE08  21641.064248  17098.952521  10734.200794    -10.957753
PE09 -27948.657459  -5677.726596   7936.700176   -781.699818
PE10 -15272.848376 -15030.672643 -20423.006780   -501.371147
PE11 -16388.012735  -3105.847720 -24453.918593    230.059430
PE12 -11885.437478 -23471.141334 -13545.569500   -361.709392
PE13  16349.834752   4174.478058  24329.694147    430.186314
PE14 -27608.147734    455.167797 -17095.203212     98.760485
PE15  11760.592591  23684.699107  13315.647440    697.614110
PE18  19398.875448  -1106.120610  13131.480378   -569.795393
PE19    -48.078262 -17842.476559 -23615.907730  -3617.212365
PE21  22650.349344 -18942.824660   2159.006929   -503.241389
PE24 -24237.581767   4007.933881  16474.958495  -1029.387452
PE25 -22789.703145  18786.842268  -1854.051559   -596.055579
PE26  11086.688521 -18352.449174  20419.194698  -1866.690595
PE27  24519.093838  -4926.139705 -15848.385349   -475.206933
PE30  11282.921325  12467.572546 -24372.490174  -1118.439420
PE31 -11917.700137 -11874.151455  24358.109133   -511.960289
PE33   -241.966174 -29080.859306   5509.014621   -455.072644
PE34    413.431213  29108.655126  -5327.680649    -22.178932
PE36 -11304.363617  17573.675164 -20958.712013   -482.762775
PG01  13199.560485  -9454.188074  20626.461831    231.059499
PG02 -11362.841528  13873.220879 -19033.919887   -630.305435
PG03  23216.561544 -12205.274122   3673.263131   -374.461812
PG04  19405.123534  -3525.891587 -17838.234639    -58.971791
PG05 -21167.114658   1346.478991 -16228.878140   -109.993855
PG06  -5961.677992 -24783.778686  -7231.071519    549.656624
PG07   7020.284618 -22435.611312 -11440.877062    266.994586
PG08  24767.132147   4979.604563   8756.050004   -101.078679
PG09   9121.807105 -12581.859267 -21622.005028   -245.252994
PG10  -2379.721855  17581.877504  19826.928684    -18.227978
PG11 -12126.051731 -15992.277921 -17405.266846    -67.240458
PG12 -24114.296333   9931.227663   4454.308655   -321.894146
PG13 -22941.799861 -13149.738058   3240.143458    450.564785
PG14   5362.591230 -18495.174343  18246.418103    -59.329279
PG15 -25125.248891  -2124.100612   8325.508682      0.178790
PG16  19304.445304   4009.250620 -18304.881797   -525.184135
PG17  -4243.508169 -17851.208207  19611.302417    689.659084
PG18  -5577.675721  24096.812926  -9480.766326    -78.527472
PG19 -15194.713786 -18787.860726  11091.274532    257.200393
PG20 -13216.824035  -8683.671205 -21291.214036    460.360565
PG21  15640.896252    341.291930  22108.822055    153.034011
PG22  17330.420857  18216.693018   9258.976484    395.086433
PG23 -13279.488924  19396.819881  12222.299435      1.115354
PG24 -14936.588904   5181.875682  20962.285388     -6.929449
PG25 -19823.012708  16966.826775  -4362.815412    406.649349
PG26   9537.160728  12611.211139 -21443.783581    239.414127
PG27  23263.607460  13166.093551  -1943.209719    140.190470
PG29 -12186.269019   9621.654392 -21602.000696   -577.280069
PG30   -954.254003 -26398.912334   -272.864930   -534.444645
PG31   7178.429994  23730.259476  -9027.477824   -204.779275
PG32   8481.016556  18090.834750  17755.394661   -346.792022
PJ02 -36060.936215  21573.999942    697.439919     -0.432511
PJ03 -18311.351714  25739.130362 -23343.704586     -7.796553
PJ04 -27930.641498  30294.482945  15516.923757    116.783668
PR01 -11588.925862  -9969.429694 -20423.052701     20.386768
PR02 -24542.034029  -3848.346846  -5588.470327    -23.345709
PR03 -22187.246434   4605.775158  11690.666855     69.980722
PR04  -7658.402336   9992.391405  22206.818040    170.435104
PR05  11072.292499  10174.698055  20621.628225    105.368238
PR07  21856.922630  -4851.701359 -12238.987876     47.042365
PR08   7515.339926 -10133.292710 -22120.893093    -68.762858
PR09  12654.920310    193.429817 -22121.539584     95.747668
PR11  11338.128228 -22432.605620   4318.733867     11.006853
PR12  -1082.464709 -16126.606131  19761.112398     23.970999
PR13 -11644.923070  -1750.278296  22606.646204    -30.442121
PR14 -16382.903572  15581.873113  11828.842412     24.158993
PR15 -11004.499016  22378.247488  -5348.546766     92.039235
PR16    847.310155  16300.402150 -19608.171165      9.303978
PR17  -9544.410403   4518.582806 -23204.512619    591.255533
PR18    687.439171  18670.796874 -17371.306111     59.265576
PR19   9176.883853  23487.284391  -3831.861947   -216.366342
PR20  14323.189009  13997.280423  15839.864863    -84.880072
PR21   8616.234991  -6137.252101  23218.907178   -361.398288
PR22   -165.695228 -19254.036711  16754.469462     64.485956
PR24 -14989.569096 -12861.590838 -16126.552790    136.096990
PR25  10198.085667  -3850.235872  23071.095228     50.216338
EOF
